BEIDOU 3 (C01)          
1 36287U 10001A   22024.86642852 -.00000270  00000+0  00000+0 0  9997
2 36287   1.8370  46.2747 0001463  40.0195 130.1650  1.00269067 44072
BEIDOU 5 (C06)          
1 36828U 10036A   22024.85953826 -.00000071  00000+0  00000+0 0  9990
2 36828  54.1891 177.5467 0027207 178.2409 185.2426  1.00288218 42142
BEIDOU 6 (C04)          
1 37210U 10057A   22024.87026612 -.00000100  00000+0  00000+0 0  9998
2 37210   0.9080  51.1029 0005708 166.4242  19.9333  1.00273227 41192
BEIDOU 7 (C07)          
1 37256U 10068A   22024.86691155 -.00000190  00000+0  00000+0 0  9998
2 37256  50.4670 291.3654 0017753 188.7122  62.5517  1.00295685 40702
BEIDOU 8 (C08)          
1 37384U 11013A   22024.44608288 -.00000167  00000+0  00000+0 0  9994
2 37384  60.0892  55.6914 0021190 193.3438 142.0472  1.00293673 39571
BEIDOU 9 (C09)          
1 37763U 11038A   22024.83458703 -.00000021  00000+0  00000+0 0  9999
2 37763  54.4740 180.0213 0087494 225.2147 114.2588  1.00264330 38551
BEIDOU 10 (C10)         
1 37948U 11073A   22024.85625185 -.00000145  00000+0  00000+0 0  9992
2 37948  50.5804 290.9974 0078089 219.3072  17.2055  1.00285367 37317
BEIDOU 11 (C05)         
1 38091U 12008A   22024.85011868  .00000066  00000+0  00000+0 0  9999
2 38091   2.0441  71.8921 0007219 275.7985 141.2794  1.00275893 36398
BEIDOU 12 (C11)         
1 38250U 12018A   22024.59300663 -.00000062  00000+0  00000+0 0  9999
2 38250  56.7286 358.3102 0024492 254.9221 343.5578  1.86234416 66408
BEIDOU 13 (C12)         
1 38251U 12018B   22024.22583181 -.00000062  00000+0  00000+0 0  9998
2 38251  56.6484 357.6570 0015520 259.9342 136.6466  1.86234189 66404
BEIDOU 15 (C14)         
1 38775U 12050B   22024.56821844 -.00000003  00000+0  00000+0 0  9998
2 38775  55.3192 116.5313 0012298 321.4374 141.5439  1.86231235 63785
BEIDOU 16 (C02)         
1 38953U 12059A   22024.92695800 -.00000164  00000+0  00000+0 0  9994
2 38953   1.6342  84.5591 0012336 278.2294 179.1248  1.00269616 33961
BEIDOU 17 (C31)         
1 40549U 15019A   22024.22150671 -.00000178  00000+0  00000+0 0  9997
2 40549  52.1323 314.4309 0035559 190.7410 154.3733  1.00273419 24989
BEIDOU 18 (C57)         
1 40748U 15037A   22024.66234525 -.00000065  00000+0  00000+0 0  9992
2 40748  55.9045 356.5957 0004478 337.5744 261.3228  1.86233321 44235
BEIDOU 19 (C58)         
1 40749U 15037B   22024.21493994 -.00000064  00000+0  00000+0 0  9990
2 40749  55.9072 356.6006 0006943 309.0626 124.9807  1.86232164 44224
BEIDOU 20 (C18)         
1 40938U 15053A   22024.42448337 -.00000116  00000+0  00000+0 0  9990
2 40938  51.7221 277.5305 0042707 194.2078 260.9450  1.00278703 23261
BEIDOU IGSO-6 (C13)     
1 41434U 16021A   22024.54423700 -.00000142  00000+0  00000+0 0  9997
2 41434  57.8882  54.3303 0045039 217.5318 143.5503  1.00269904 21399
BEIDOU-2 G7 (C03)       
1 41586U 16037A   22024.77398748 -.00000343  00000+0  00000+0 0  9993
2 41586   1.6576  67.2137 0008260   0.0424  85.9071  1.00276351 20707
BEIDOU-3 M1 (C19)       
1 43001U 17069A   22023.64356899  .00000004  00000+0  00000+0 0  9992
2 43001  55.4721 116.5432 0008920 283.9648  75.2335  1.86231603 28695
BEIDOU-3 M2 (C20)       
1 43002U 17069B   22024.04575122  .00000001  00000+0  00000+0 0  9997
2 43002  55.4718 116.5657 0006978 308.4283   3.6027  1.86231369 28692
BEIDOU-3 M3 (C27)       
1 43107U 18003A   22024.73630044 -.00000066  00000+0  00000+0 0  9995
2 43107  55.3514 357.5741 0003940  35.5923 185.4123  1.86232454 27474
BEIDOU-3 M4 (C28)       
1 43108U 18003B   22024.66278510 -.00000066  00000+0  00000+0 0  9994
2 43108  55.3458 357.5673 0004072 262.9516 313.4608  1.86230927 27471
BEIDOU-3 M5 (C21)       
1 43207U 18018A   22024.24944696  .00000000  00000+0  00000+0 0  9996
2 43207  55.4317 116.6416 0004425 333.2499  26.7553  1.86231536 26850
BEIDOU-3 M6 (C22)       
1 43208U 18018B   22024.31613229 -.00000001  00000+0  00000+0 0  9992
2 43208  55.4308 116.6443 0007030 294.2317  65.7231  1.86231684 26851
BEIDOU-3 M7 (C29)       
1 43245U 18029A   22024.32511154 -.00000066  00000+0  00000+0 0  9991
2 43245  55.2729 355.3669 0001531 298.8138 276.8462  1.86232586 26000
BEIDOU-3 M8 (C30)       
1 43246U 18029B   22024.79961918 -.00000067  00000+0  10000-3 0  9996
2 43246  55.2701 355.3814 0004776 340.1420 240.0696  1.86232817 26001
BEIDOU IGSO-7 (C16)     
1 43539U 18057A   22024.51796043 -.00000074  00000+0  00000+0 0  9990
2 43539  55.0686 176.9783 0040709 220.5438  24.0185  1.00253974 13062
BEIDOU-3 M9 (C23)       
1 43581U 18062A   22024.59330557  .00000095  00000+0  00000+0 0  9997
2 43581  54.3211 237.0124 0002681 322.4896 329.9977  1.86231944 23749
BEIDOU-3 M10 (C24)      
1 43582U 18062B   22024.69781494  .00000095  00000+0  00000+0 0  9999
2 43582  54.3209 236.9999 0006943  17.7386  76.4669  1.86232355 23758
BEIDOU-3 M11 (C25)      
1 43602U 18067A   22024.08885628  .00000093  00000+0  00000+0 0  9992
2 43602  54.4002 235.6225 0007987  11.8226  75.7638  1.86231614 23236
BEIDOU-3 M12 (C26)      
1 43603U 18067B   22024.72246767  .00000098  00000+0  00000+0 0  9994
2 43603  54.3971 235.5670 0004983   7.2992  55.5034  1.86231582 23269
BEIDOU-3 M13 (C32)      
1 43622U 18072A   22024.68941135 -.00000005  00000+0  00000+0 0  9996
2 43622  55.3981 116.1871 0005763 275.3868 154.9786  1.86231441 22773
BEIDOU-3 M14 (C33)      
1 43623U 18072B   22024.56101677 -.00000004  00000+0  00000+0 0  9992
2 43623  55.3994 116.1836 0003511 300.7965 133.7194  1.86231444 22770
BEIDOU-3 M15 (C34)      
1 43647U 18078A   22022.83631155 -.00000065  00000+0  10000-3 0  9993
2 43647  55.1682 355.5893 0007282 349.6678 263.8779  1.86232989 22243
BEIDOU-3 M16 (C35)      
1 43648U 18078B   22024.45775257 -.00000066  00000+0  00000+0 0  9992
2 43648  55.1634 355.5403 0004774 354.5219 174.1776  1.86232267 22292
BEIDOU-3 G1 (C59)       
1 43683U 18085A   22024.86634130 -.00000266  00000+0  00000+0 0  9990
2 43683   0.8422 192.3271 0002377  30.2385 353.5041  1.00271225 11976
BEIDOU-3 M17 (C36)      
1 43706U 18093A   22024.35853194  .00000093  00000+0  00000+0 0  9999
2 43706  54.4028 236.8950 0007479 286.9974  72.9743  1.86231738 21655
BEIDOU-3 M18 (C37)      
1 43707U 18093B   22024.66204228  .00000095  00000+0  00000+0 0  9994
2 43707  54.4028 236.8764 0007553 318.2534 336.2887  1.86232223 21647
BEIDOU-3 IGSO-1 (C38)   
1 44204U 19023A   22024.54457122 -.00000202  00000+0  00000+0 0  9992
2 44204  56.3453  54.5238 0022511 195.3266 186.4112  1.00254362 10278
BEIDOU-2 G8             
1 44231U 19027A   22024.86721348 -.00000235  00000+0  00000+0 0  9991
2 44231   0.5295  66.5128 0006212 149.4287   4.9021  1.00275597  9989
BEIDOU-3 IGSO-2 (C39)   
1 44337U 19035A   22024.44956814 -.00000086  00000+0  00000+0 0  9993
2 44337  55.1112 173.0082 0022022 186.8171  41.7588  1.00297378  9604
BEIDOU-3 M23 (C45)      
1 44542U 19061A   22023.21993272  .00000085  00000+0  00000+0 0  9991
2 44542  54.6288 237.0472 0008812 352.8582   7.1846  1.86231416 15881
BEIDOU-3 M24 (C46)      
1 44543U 19061B   22024.19880344  .00000092  00000+0  00000+0 0  9993
2 44543  54.6259 236.9841 0005865 349.2916 218.1572  1.86231953 15891
BEIDOU-3 IGSO-3         
1 44709U 19073A   22024.42184216 -.00000182  00000+0  00000+0 0  9992
2 44709  57.4979 297.8803 0017706 183.5499 270.5718  1.00250902  8360
BEIDOU-3 M21            
1 44793U 19078A   22024.40330324 -.00000067  00000+0  10000-3 0  9998
2 44793  55.0165 355.5749 0006768 356.3200 181.9459  1.86232271 14762
BEIDOU-3 M22            
1 44794U 19078B   22024.53381493 -.00000067  00000+0  00000+0 0  9991
2 44794  54.9904 355.5644 0004859 347.2004 189.9577  1.86232835 14761
BEIDOU-3 M19            
1 44864U 19090A   22024.52802985 -.00000003  00000+0  00000+0 0  9996
2 44864  55.3325 116.4118 0016147 264.4355 103.3791  1.86231772 14355
BEIDOU-3 M20            
1 44865U 19090B   22024.78669351 -.00000006  00000+0  00000+0 0  9996
2 44865  55.3350 116.4348 0014245 278.8288 352.2963  1.86231723 14329
BEIDOU-3 G2             
1 45344U 20017A   22024.77619003 -.00000127  00000+0  00000+0 0  9992
2 45344   2.1795 345.2517 0000860  52.9467  85.3103  1.00269967  7175
BEIDOU-3 G3             
1 45807U 20040A   22024.76021674 -.00000339  00000+0  00000+0 0  9997
2 45807   1.7707 300.1531 0009375 350.4882 217.4298  1.00264604  5994
